QZS-1 (MICHIBIKI-1)     
1 37158U 10045A   19081.94412108 -.00000202  00000-0  00000-0 0  9997
2 37158  41.2598 150.0363 0749881 270.0373 234.2344  1.00300796 31240
QZS-2  (MICHIBIKI-2)    
1 42738U 17028A   19083.40857862 -.00000204  00000-0  00000+0 0  9999
2 42738  43.7414 280.6902 0741847 270.7610 276.7600  1.00262210  6648
QZS-3 (MICHIBIKI-3)     
1 42917U 17048A   19082.90519904 -.00000372  00000-0  00000-0 0  9993
2 42917   0.0455 193.7388 0001630 185.1196 255.0543  1.00267941  5761
QZS-4 (MICHIBIKI-4)     
1 42965U 17062A   19082.91204365 -.00000343  00000-0  00000-0 0  9993
2 42965  40.7254  17.5845 0749228 270.0386 359.8329  1.00286250  5321
